IRIDIUM 119             
1 42959U 17061E   25300.93706796  .00000022  00000+0  70581-6 0  9991
2 42959  86.3938 122.3654 0002290  84.3294 275.8163 14.34217668421522
IRIDIUM 107             
1 42960U 17061F   25300.88633230  .00000138  00000+0  42133-4 0  9997
2 42960  86.3938 122.4065 0002092  76.1176 284.0253 14.34215042421525
IRIDIUM 132             
1 42961U 17061G   25300.96243673  .00000132  00000+0  40180-4 0  9999
2 42961  86.3936 122.3558 0002015  85.7491 274.3935 14.34217378421535
IRIDIUM 136             
1 42962U 17061H   25300.92438196 -.00000051  00000+0 -25182-4 0  9999
2 42962  86.3940 122.3771 0002060  84.3527 275.7904 14.34217101421549
IRIDIUM 139             
1 42963U 17061J   25300.93072495  .00000006  00000+0 -49422-5 0  9990
2 42963  86.3942 122.4327 0001839  81.9544 278.1860 14.34217505421552
IRIDIUM 125             
1 42964U 17061K   25300.91804035 -.00000015  00000+0 -12448-4 0  9990
2 42964  86.3943 122.4949 0002254  75.3702 284.7743 14.34217284421567
IRIDIUM 135             
1 43070U 17083A   25300.89216638  .00000401  00000+0  13598-3 0  9999
2 43070  86.3966  59.1052 0002000  98.6694 261.4728 14.34218985410853
IRIDIUM 138             
1 43071U 17083B   25300.84776936  .00000112  00000+0  32971-4 0  9993
2 43071  86.3979  58.7832 0002487  91.8862 268.2619 14.34218011410832
